[{"OBJECT_NAME":"STARLINK-2637","OBJECT_ID":"2021-038D","EPOCH":"2026-03-09T01:09:51.248448","MEAN_MOTION":15.29352936,"ECCENTRICITY":0.00012819,"INCLINATION":53.1538,"RA_OF_ASC_NODE":1.1174,"ARG_OF_PERICENTER":68.0058,"MEAN_ANOMALY":292.1078,"EPHEMERIS_TYPE":0,"CLASSIFICATION_TYPE":"U","NORAD_CAT_ID":48356,"ELEMENT_SET_NO":999,"REV_AT_EPOCH":26698,"BSTAR":0.00030200777,"MEAN_MOTION_DOT":8.368e-5,"MEAN_MOTION_DDOT":0},{"OBJECT_NAME":"JILIN-1 GAOFEN 03D47","OBJECT_ID":"2022-167L","EPOCH":"2026-03-09T22:56:46.924224","MEAN_MOTION":15.31686941,"ECCENTRICITY":0.00089304,"INCLINATION":97.6835,"RA_OF_ASC_NODE":234.6581,"ARG_OF_PERICENTER":110.4031,"MEAN_ANOMALY":249.8169,"EPHEMERIS_TYPE":0,"CLASSIFICATION_TYPE":"U","NORAD_CAT_ID":54692,"ELEMENT_SET_NO":999,"REV_AT_EPOCH":18014,"BSTAR":0.00047294748,"MEAN_MOTION_DOT":0.00014417,"MEAN_MOTION_DDOT":0}]
